NOAA 1 [-]              
1 04793U 70106A   22339.77844664 -.00000025  00000+0  11992-3 0  9994
2 04793 101.5355  39.1267 0031370 349.2217 120.7854 12.54009464379062
NOAA 2 (ITOS-D) [-]     
1 06235U 72082A   22339.86228986 -.00000030  00000+0  10243-3 0  9999
2 06235 101.9737 323.2837 0004160 105.1724 312.2992 12.53154549293444
NOAA 3 [-]              
1 06920U 73086A   22340.36862767 -.00000034  00000+0  91053-4 0  9996
2 06920 102.2284 322.5355 0006666 335.5826 196.7441 12.40350862222299
NOAA 4 [-]              
1 07529U 74089A   22339.84112019 -.00000033  00000+0  78678-4 0  9992
2 07529 101.9355 320.1091 0009001 134.8021 285.2707 12.53163010198016
NOAA 5 [-]              
1 09057U 76077A   22339.82414648 -.00000029  00000+0  12459-3 0  9999
2 09057 102.1256 306.1325 0009480 182.5671 240.3354 12.37777137 94943
TIROS N [-]             
1 11060U 78096A   22339.76168538  .00000136  00000+0  86648-4 0  9996
2 11060  98.6136  28.7742 0010714  16.1072 344.0442 14.18445246495898
NOAA 6 [-]              
1 11416U 79057A   22339.79386689  .00000236  00000+0  10069-3 0  9995
2 11416  98.6607 350.9029 0011349 111.1592 249.0806 14.33847280266077
NOAA 7 [-]              
1 12553U 81059A   22339.84420500  .00000024  00000+0  34654-4 0  9992
2 12553  98.9772  26.1991 0011287 353.3855   6.7168 14.17359137142072
NOAA 8 [-]              
1 13923U 83022A   22339.99270923  .00000115  00000+0  63144-4 0  9991
2 13923  98.7005 329.9909 0016086  69.2953 290.9951 14.28861957 67161
NOAA 9 [-]              
1 15427U 84123A   22340.19059826  .00000115  00000+0  81357-4 0  9992
2 15427  99.0683 315.4587 0015535  41.4954 329.8929 14.16251382961152
NOAA 10 [-]             
1 16969U 86073A   22339.81240399  .00000107  00000+0  60345-4 0  9999
2 16969  98.5856 322.9614 0012363 165.6400 259.8222 14.28250286885298
NOAA 11 [-]             
1 19531U 88089A   22340.41475400  .00000052  00000+0  47758-4 0  9999
2 19531  98.4429 320.1986 0011997  47.1283 313.0898 14.15337785765394
NOAA 12 [-]             
1 21263U 91032A   22339.83682495  .00000077  00000+0  50046-4 0  9995
2 21263  98.5225 334.9278 0013317 193.3522 166.7307 14.26032829641157
NOAA 13 [-]             
1 22739U 93050A   22339.82636960  .00000054  00000+0  50972-4 0  9994
2 22739  98.5274 311.2619 0008879 207.5147 152.5557 14.12886411511251
NOAA 14 [-]             
1 23455U 94089A   22339.84265890  .00000049  00000+0  47250-4 0  9994
2 23455  98.4362 357.1852 0009332 184.9722 175.1360 14.14222601440930
NOAA 15 [B]             
1 25338U 98030A   22340.51666981  .00000172  00000+0  90029-4 0  9997
2 25338  98.6279   7.6703 0010908 151.1462 209.0324 14.26204136277796
NOAA 16 [-]             
1 26536U 00055A   22339.86008848  .00000079  00000+0  64602-4 0  9990
2 26536  98.6145  32.6578 0011142  41.2311 318.9702 14.13363099441568
NOAA 17 [-]             
1 27453U 02032A   22340.58312760  .00000128  00000+0  72966-4 0  9995
2 27453  98.6929 283.9852 0012619 127.9573 232.2748 14.25173213 63383
NOAA 18 [B]             
1 28654U 05018A   22340.44518253  .00000181  00000+0  12164-3 0  9998
2 28654  98.9330  50.6009 0014029 201.8245 158.2330 14.12817066904356
NOAA 19 [+]             
1 33591U 09005A   22340.53704269  .00000208  00000+0  13687-3 0  9999
2 33591  99.1284  18.1304 0014727  66.6745 293.5974 14.12647034712740
SUOMI NPP [+]           
1 37849U 11061A   22340.41111512  .00000061  00000+0  49761-4 0  9994
2 37849  98.7500 276.6873 0001171  99.3790  48.1164 14.19523238575580
NOAA 20 [+]             
1 43013U 17073A   22340.48720554  .00000069  00000+0  53576-4 0  9999
2 43013  98.7339 276.4569 0000594  65.8529 294.2709 14.19563886261636
